{
  "type": "FeatureCollection",
  "features": [
    {
      "type": "Feature",
      "properties": {
        "OBJECT_NAME": "YAOGAN-27",
        "OBJECT_ID": "2015-040A",
        "EPOCH": "2025-11-29T20:28:50.780928",
        "MEAN_MOTION": 13.16059385,
        "ECCENTRICITY": 0.0007809,
        "INCLINATION": 100.1002,
        "RA_OF_ASC_NODE": 324.0567,
        "ARG_OF_PERICENTER": 318.3708,
        "MEAN_ANOMALY": 41.681,
        "EPHEMERIS_TYPE": 0,
        "CLASSIFICATION_TYPE": "U",
        "NORAD_CAT_ID": 40878,
        "ELEMENT_SET_NO": 999,
        "REV_AT_EPOCH": 49144,
        "BSTAR": 0.00019571,
        "MEAN_MOTION_DOT": 3.2e-07,
        "MEAN_MOTION_DDOT": 0,
        "norad_id": 40878,
        "name": "YAOGAN-27",
        "group": "resource",
        "longitude_deg": NaN,
        "latitude_deg": NaN,
        "alt_km": NaN,
        "orbit_class": "HEO",
        "timestamp": "2025-11-30T04:58:49.603500+00:00"
      },
      "geometry": {
        "type": "Point",
        "coordinates": [
          NaN,
          NaN
        ]
      }
    },
    {
      "type": "Feature",
      "properties": {
        "OBJECT_NAME": "GAOFEN-9 01",
        "OBJECT_ID": "2015-047A",
        "EPOCH": "2025-11-29T20:07:44.601024",
        "MEAN_MOTION": 14.82369621,
        "ECCENTRICITY": 0.0029038,
        "INCLINATION": 97.656,
        "RA_OF_ASC_NODE": 13.3508,
        "ARG_OF_PERICENTER": 74.8487,
        "MEAN_ANOMALY": 285.5936,
        "EPHEMERIS_TYPE": 0,
        "CLASSIFICATION_TYPE": "U",
        "NORAD_CAT_ID": 40894,
        "ELEMENT_SET_NO": 999,
        "REV_AT_EPOCH": 55065,
        "BSTAR": 0.00015562,
        "MEAN_MOTION_DOT": 1.203e-05,
        "MEAN_MOTION_DDOT": 0,
        "norad_id": 40894,
        "name": "GAOFEN-9 01",
        "group": "resource",
        "longitude_deg": NaN,
        "latitude_deg": NaN,
        "alt_km": NaN,
        "orbit_class": "HEO",
        "timestamp": "2025-11-30T04:58:49.603545+00:00"
      },
      "geometry": {
        "type": "Point",
        "coordinates": [
          NaN,
          NaN
        ]
      }
    },
    {
      "type": "Feature",
      "properties": {
        "OBJECT_NAME": "YAOGAN-28",
        "OBJECT_ID": "2015-064A",
        "EPOCH": "2025-11-29T20:03:59.463360",
        "MEAN_MOTION": 15.24010723,
        "ECCENTRICITY": 0.0011702,
        "INCLINATION": 97.2795,
        "RA_OF_ASC_NODE": 111.9964,
        "ARG_OF_PERICENTER": 169.3134,
        "MEAN_ANOMALY": 190.8355,
        "EPHEMERIS_TYPE": 0,
        "CLASSIFICATION_TYPE": "U",
        "NORAD_CAT_ID": 41026,
        "ELEMENT_SET_NO": 999,
        "REV_AT_EPOCH": 56028,
        "BSTAR": 0.00036415,
        "MEAN_MOTION_DOT": 8.773e-05,
        "MEAN_MOTION_DDOT": 0,
        "norad_id": 41026,
        "name": "YAOGAN-28",
        "group": "resource",
        "longitude_deg": NaN,
        "latitude_deg": NaN,
        "alt_km": NaN,
        "orbit_class": "HEO",
        "timestamp": "2025-11-30T04:58:49.603737+00:00"
      },
      "geometry": {
        "type": "Point",
        "coordinates": [
          NaN,
          NaN
        ]
      }
    },
    {
      "type": "Feature",
      "properties": {
        "OBJECT_NAME": "YAOGAN-29",
        "OBJECT_ID": "2015-069A",
        "EPOCH": "2025-11-29T20:43:59.175840",
        "MEAN_MOTION": 14.82859429,
        "ECCENTRICITY": 0.0001027,
        "INCLINATION": 98.0231,
        "RA_OF_ASC_NODE": 356.9936,
        "ARG_OF_PERICENTER": 15.556,
        "MEAN_ANOMALY": 344.5685,
        "EPHEMERIS_TYPE": 0,
        "CLASSIFICATION_TYPE": "U",
        "NORAD_CAT_ID": 41038,
        "ELEMENT_SET_NO": 999,
        "REV_AT_EPOCH": 54108,
        "BSTAR": 6.6634e-05,
        "MEAN_MOTION_DOT": 4.85e-06,
        "MEAN_MOTION_DDOT": 0,
        "norad_id": 41038,
        "name": "YAOGAN-29",
        "group": "resource",
        "longitude_deg": NaN,
        "latitude_deg": NaN,
        "alt_km": NaN,
        "orbit_class": "HEO",
        "timestamp": "2025-11-30T04:58:49.603782+00:00"
      },
      "geometry": {
        "type": "Point",
        "coordinates": [
          NaN,
          NaN
        ]
      }
    },
    {
      "type": "Feature",
      "properties": {
        "OBJECT_NAME": "KENT RIDGE 1",
        "OBJECT_ID": "2015-077B",
        "EPOCH": "2025-11-29T03:18:34.869312",
        "MEAN_MOTION": 15.21472411,
        "ECCENTRICITY": 0.00087662,
        "INCLINATION": 14.9811,
        "RA_OF_ASC_NODE": 312.0536,
        "ARG_OF_PERICENTER": 298.5634,
        "MEAN_ANOMALY": 61.3805,
        "EPHEMERIS_TYPE": 0,
        "CLASSIFICATION_TYPE": "U",
        "NORAD_CAT_ID": 41167,
        "ELEMENT_SET_NO": 999,
        "REV_AT_EPOCH": 55056,
        "BSTAR": 0.00019518176,
        "MEAN_MOTION_DOT": 5.279e-05,
        "MEAN_MOTION_DDOT": 0,
        "norad_id": 41167,
        "name": "KENT RIDGE 1",
        "group": "resource",
        "longitude_deg": NaN,
        "latitude_deg": NaN,
        "alt_km": NaN,
        "orbit_class": "HEO",
        "timestamp": "2025-11-30T04:58:49.603810+00:00"
      },
      "geometry": {
        "type": "Point",
        "coordinates": [
          NaN,
          NaN
        ]
      }
    },
    {
      "type": "Feature",
      "properties": {
        "OBJECT_NAME": "GAOFEN-4",
        "OBJECT_ID": "2015-083A",
        "EPOCH": "2025-11-29T21:13:27.247296",
        "MEAN_MOTION": 1.0026845,
        "ECCENTRICITY": 0.0003572,
        "INCLINATION": 0.1342,
        "RA_OF_ASC_NODE": 80.3368,
        "ARG_OF_PERICENTER": 107.4958,
        "MEAN_ANOMALY": 305.2395,
        "EPHEMERIS_TYPE": 0,
        "CLASSIFICATION_TYPE": "U",
        "NORAD_CAT_ID": 41194,
        "ELEMENT_SET_NO": 999,
        "REV_AT_EPOCH": 3653,
        "BSTAR": 0,
        "MEAN_MOTION_DOT": -3.13e-06,
        "MEAN_MOTION_DDOT": 0,
        "norad_id": 41194,
        "name": "GAOFEN-4",
        "group": "resource",
        "longitude_deg": NaN,
        "latitude_deg": NaN,
        "alt_km": NaN,
        "orbit_class": "HEO",
        "timestamp": "2025-11-30T04:58:49.603890+00:00"
      },
      "geometry": {
        "type": "Point",
        "coordinates": [
          NaN,
          NaN
        ]
      }
    },
    {
      "type": "Feature",
      "properties": {
        "OBJECT_NAME": "JASON-3",
        "OBJECT_ID": "2016-002A",
        "EPOCH": "2025-11-29T20:34:04.865664",
        "MEAN_MOTION": 12.87625636,
        "ECCENTRICITY": 0.0007172,
        "INCLINATION": 66.0394,
        "RA_OF_ASC_NODE": 184.9092,
        "ARG_OF_PERICENTER": 270.0614,
        "MEAN_ANOMALY": 89.9583,
        "EPHEMERIS_TYPE": 0,
        "CLASSIFICATION_TYPE": "U",
        "NORAD_CAT_ID": 41240,
        "ELEMENT_SET_NO": 999,
        "REV_AT_EPOCH": 46158,
        "BSTAR": 2.1657e-05,
        "MEAN_MOTION_DOT": -5.7e-07,
        "MEAN_MOTION_DDOT": 0,
        "norad_id": 41240,
        "name": "JASON-3",
        "group": "resource",
        "longitude_deg": NaN,
        "latitude_deg": NaN,
        "alt_km": NaN,
        "orbit_class": "HEO",
        "timestamp": "2025-11-30T04:58:49.603903+00:00"
      },
      "geometry": {
        "type": "Point",
        "coordinates": [
          NaN,
          NaN
        ]
      }
    },
    {
      "type": "Feature",
      "properties": {
        "OBJECT_NAME": "SENTINEL-3A",
        "OBJECT_ID": "2016-011A",
        "EPOCH": "2025-11-29T20:05:36.938112",
        "MEAN_MOTION": 14.26738605,
        "ECCENTRICITY": 0.0001019,
        "INCLINATION": 98.6224,
        "RA_OF_ASC_NODE": 39.0373,
        "ARG_OF_PERICENTER": 90.4918,
        "MEAN_ANOMALY": 269.6379,
        "EPHEMERIS_TYPE": 0,
        "CLASSIFICATION_TYPE": "U",
        "NORAD_CAT_ID": 41335,
        "ELEMENT_SET_NO": 999,
        "REV_AT_EPOCH": 50963,
        "BSTAR": 7.3518e-05,
        "MEAN_MOTION_DOT": 1.34e-06,
        "MEAN_MOTION_DDOT": 0,
        "norad_id": 41335,
        "name": "SENTINEL-3A",
        "group": "resource",
        "longitude_deg": NaN,
        "latitude_deg": NaN,
        "alt_km": NaN,
        "orbit_class": "HEO",
        "timestamp": "2025-11-30T04:58:49.603935+00:00"
      },
      "geometry": {
        "type": "Point",
        "coordinates": [
          NaN,
          NaN
        ]
      }
    }
  ]
}