YAOGAN-27               
1 40878U 15040A   25333.85336552  .00000032  00000+0  19571-3 0  9990
2 40878 100.1002 324.0567 0007809 318.3708  41.6810 13.16059385491447
GAOFEN-9 01             
1 40894U 15047A   25333.83871066  .00001203  00000+0  15562-3 0  9994
2 40894  97.6560  13.3508 0029038  74.8487 285.5936 14.82369621550651
YAOGAN-28               
1 41026U 15064A   25333.83610490  .00008773  00000+0  36415-3 0  9992
2 41026  97.2795 111.9964 0011702 169.3134 190.8355 15.24010723560280
YAOGAN-29               
1 41038U 15069A   25333.86387935  .00000485  00000+0  66634-4 0  9997
2 41038  98.0231 356.9936 0001027  15.5560 344.5685 14.82859429541089
KENT RIDGE 1            
1 41167U 15077B   25333.13790358  .00005279  00000+0  19518-3 0  9990
2 41167  14.9811 312.0536 0008766 298.5634  61.3805 15.21472411550561
GAOFEN-4                
1 41194U 15083A   25333.88434314 -.00000313  00000+0  00000+0 0  9993
2 41194   0.1342  80.3368 0003572 107.4958 305.2395  1.00268450 36530
JASON-3                 
1 41240U 16002A   25333.85700076 -.00000057  00000+0  21657-4 0  9996
2 41240  66.0394 184.9092 0007172 270.0614  89.9583 12.87625636461583
SENTINEL-3A             
1 41335U 16011A   25333.83723308  .00000134  00000+0  73518-4 0  9990
2 41335  98.6224  39.0373 0001019  90.4918 269.6379 14.26738605509633
